245P/WISE,e,21.1883,316.6668,316.8532,4.047592,0.1210344,0.45611030,219.9285,01/29.0/2023,2000,g 14.0,4.0
# From MPEC 2023-A50
246P/NEAT,e,16.0068,77.9845,177.7419,4.039551,0.1213960,0.29015585,85.1249,01/29.0/2023,2000,g 10.5,4.0
# From MPEC 2021-F20
247P/LINEAR,e,13.6590,54.0297,47.4045,3.967293,0.1247276,0.62472662,189.5357,01/29.0/2023,2000,g 16.5,2.0
# From MPC 75730
248P/Gibbs,e,6.3512,207.8118,209.8688,5.989709,0.0672350,0.63913110,295.4567,01/29.0/2023,2000,g 14.0,4.0
# From MPEC 2022-YN2
249P/LINEAR,e,8.3865,239.0787,65.7370,2.763705,0.2145194,0.81968173,202.4199,01/29.0/2023,2000,g 15.5,4.0
# From MPC110497
250P/Larson,e,13.1511,73.3593,46.0885,3.768844,0.1347075,0.39891017,246.8706,01/29.0/2023,2000,g 14.5,4.0
# From MPC104795
251P/LINEAR,e,23.3863,219.3450,31.2552,3.513039,0.1496854,0.50449192,303.0785,01/29.0/2023,2000,g 16.5,2.0
# From MPEC 2021-S45
252P/LINEAR,e,10.4136,190.9142,343.3963,3.050998,0.1849444,0.67122722,104.8595,01/29.0/2023,2000,g 17.5,4.0
# From MPEC 2020-FB5
253P/PANSTARRS,e,4.9434,146.8783,230.7181,3.464310,0.1528547,0.41457537,263.5766,01/29.0/2023,2000,g 14.5,4.0
# From MPEC 2023-BF4
254P/McNaught,e,32.5654,129.1851,219.6632,4.615894,0.0993849,0.31964583,84.5415,01/29.0/2023,2000,g 11.0,4.0
# From MPEC 2021-UA9
255P/Levy,e,13.4111,275.6615,186.0119,2.942134,0.1953037,0.71154165,28.0656,01/29.0/2023,2000,g 14.1,4.0
# From MPEC 2023-BF4
256P/LINEAR,e,27.6190,81.3312,124.1953,4.639613,0.0986237,0.41798783,355.8336,01/29.0/2023,2000,g 14.0,2.0
# From MPEC 2023-A50
257P/Catalina,e,20.2197,207.7155,117.7633,3.764330,0.1349499,0.42998842,117.4583,01/29.0/2023,2000,g 11.5,4.0
# From MPEC 2021-U31
258P/PANSTARRS,e,6.7471,126.2366,25.7525,4.393987,0.1070079,0.20846744,102.2553,01/29.0/2023,2000,g 13.0,4.0
# From MPC106349
259P/Garradd,e,15.8965,51.4311,257.5551,2.729597,0.2185527,0.33886589,77.5415,01/29.0/2023,2000,g 15.5,4.0
# From MPEC 2022-O01
260P/McNaught,e,15.0561,349.3362,18.4475,3.623289,0.1429057,0.60935327,176.6515,01/29.0/2023,2000,g 13.5,4.0
# From MPEC 2021-J28
261P/Larson,e,6.0721,291.1102,67.2686,3.490483,0.1511387,0.42332661,199.3834,01/29.0/2023,2000,g 14.0,4.0
# From MPC 82322
262P/McNaught-Russell,e,29.2909,217.8633,171.0586,6.871496,0.0547176,0.81631909,202.7696,01/29.0/2023,2000,g 13.5,4.0
# From MPEC 2023-BF4
263P/Gibbs,e,11.5219,105.5109,35.0421,3.041756,0.1857879,0.59355761,359.7058,01/29.0/2023,2000,g 18.0,4.0
# From MPC114608
264P/Larsen,e,25.4954,220.0739,346.6941,3.882898,0.1288161,0.37670923,164.2728,01/29.0/2023,2000,g 13.0,4.0
# From MPC 79870
265P/LINEAR,e,14.3622,342.9270,33.4884,4.256563,0.1122317,0.64761609,80.6718,01/29.0/2023,2000,g 14.5,4.0
# From MPEC 2021-F20
266P/Christensen,e,3.4269,4.9922,97.6716,3.531306,0.1485255,0.33996637,150.6973,01/29.0/2023,2000,g 14.7,4.0
# From MPC114608
267P/LONEOS,e,6.1437,228.5672,114.2421,3.210577,0.1713284,0.61437842,282.6027,01/29.0/2023,2000,g 19.5,4.0
# From MPC 92277
268P/Bernardi,e,15.7065,126.3540,359.8164,4.585044,0.1003896,0.47699927,290.7441,01/29.0/2023,2000,g 14.0,4.0
# From MPC104795
269P/Jedicke,e,7.0812,241.7488,225.6906,7.068180,0.0524497,0.43166015,159.5924,01/29.0/2023,2000,g 10.0,4.0
# From MPC 88332
270P/Gehrels,e,2.9243,223.0350,209.7647,6.658272,0.0573669,0.46908921,201.8412,01/29.0/2023,2000,g  8.0,4.0
# From MPC 92277
271P/van Houten-Lemmon,e,6.8721,9.3168,36.4227,7.035898,0.0528110,0.39575039,183.8417,01/29.0/2023,2000,g 11.0,4.0
# From MPEC 2022-C56
272P/NEAT,e,18.0729,109.4641,27.8924,4.461541,0.1045868,0.45487371,20.4963,01/29.0/2023,2000,g 16.0,2.0
# From MPC 82723
273P/Pons-Gambart,e,136.6809,320.3937,20.2977,31.97831,0.0054503,0.97436752,0.0000,12/21.6851/2012,2000,g 11.5,4.0
# From MPEC 2022-M21
274P/Tombaugh-Tenagra,e,15.8154,81.3295,38.4715,4.377190,0.1076245,0.43959560,31.8070,01/29.0/2023,2000,g 13.0,4.0
# From MPC 81862
275P/Hermann,e,21.2706,348.7541,173.9527,5.779805,0.0709307,0.71294230,262.8224,01/29.0/2023,2000,g 17.0,4.0
# From MPEC 2023-A50
276P/Vorobjov,e,14.8111,211.3475,199.4833,5.325854,0.0801900,0.26805709,305.1707,01/29.0/2023,2000,g 11.5,4.0
# From MPEC 2021-F20
277P/LINEAR,e,16.7791,276.3042,152.3351,3.853451,0.1302955,0.50616535,98.9722,01/29.0/2023,2000,g 15.1,4.0
# From MPEC 2021-S45
278P/McNaught,e,6.6963,15.3813,237.6043,3.682299,0.1394843,0.43687722,121.2718,01/29.0/2023,2000,g 14.0,4.0
# From MPEC 2022-K19
279P/LaSagra,e,5.0524,346.2328,5.8610,3.573413,0.1459081,0.39886412,348.2413,01/29.0/2023,2000,g 14.0,4.0
# From MPEC 2022-K19
280P/Larsen,e,11.7723,131.3883,104.7309,4.530102,0.1022215,0.41720883,340.8155,01/29.0/2023,2000,g 12.5,4.0
# From MPEC 2021-W31
281P/MOSS,e,4.7182,87.1792,26.6580,4.877715,0.0914912,0.17287685,359.6717,01/29.0/2023,2000,g 11.0,4.0
# From MPC133426
282P/,e,5.8117,9.2962,217.6128,4.238146,0.1129641,0.18804319,52.1383,01/29.0/2023,2000,g 13.5,2.0
# From MPEC 2022-K19
283P/Spacewatch,e,14.4556,161.1274,22.2155,4.135445,0.1171981,0.48444039,59.5522,01/29.0/2023,2000,g 16.0,2.0
# From MPEC 2022-YB4
284P/McNaught,e,11.8610,144.2630,202.4324,3.676183,0.1398326,0.37535409,70.3961,01/29.0/2023,2000,g 13.0,4.0
# From MPEC 2023-B57
285P/LINEAR,e,25.0382,185.5070,178.4199,4.510832,0.1028772,0.61884159,1.7210,01/29.0/2023,2000,g 15.0,4.0
# From MPEC 2022-X67
286P/Christensen,e,17.0385,283.8880,24.9087,4.114666,0.1180870,0.42631063,30.8614,01/29.0/2023,2000,g 14.0,4.0
# From MPEC 2023-A50
287P/Christensen,e,16.3216,139.0430,189.1152,4.163587,0.1160119,0.27124669,341.6670,01/29.0/2023,2000,g 13.5,4.0
# From MPC133426
288P/,e,3.2384,83.1233,280.2035,3.048205,0.1851987,0.20052887,61.7374,01/29.0/2023,2000,g 16.0,2.0
# From MPEC 2022-K19
289P/Blanpain,e,5.8991,68.8869,9.8394,3.045457,0.1854493,0.68604135,210.4367,01/29.0/2023,2000,g 19.0,4.0
# From MPC 95214
290P/Jager,e,20.0354,302.6681,181.8480,6.217158,0.0635794,0.62727753,209.3989,01/29.0/2023,2000,g 10.5,4.0
# From MPEC 2023-B57
291P/NEAT,e,6.3062,237.6670,173.5338,4.542387,0.1018070,0.43527941,350.3118,01/29.0/2023,2000,g 13.0,4.0
# From MPEC 2022-K19
292P/Li,e,24.2931,90.9247,319.5331,6.101889,0.0653894,0.58961099,214.5330,01/29.0/2023,2000,g 12.5,4.0
# From MPEC 2022-L66
293P/Spacewatch,e,9.0601,78.3983,40.9483,3.640831,0.1418741,0.41846398,109.3649,01/29.0/2023,2000,g 14.5,4.0
# From MPEC 2020-SI8
294P/LINEAR,e,17.8328,311.1144,236.3566,3.186238,0.1732953,0.60355658,199.7607,01/29.0/2023,2000,g 15.5,4.0
# From MPEC 2022-K19
295P/LINEAR,e,21.0742,7.4357,72.8881,5.304883,0.0806660,0.61706908,257.4594,01/29.0/2023,2000,g 12.0,4.0
# From MPEC 2021-N06
296P/Garradd,e,25.2466,263.5543,349.9900,3.492014,0.1510393,0.47886195,130.4346,01/29.0/2023,2000,g 14.0,4.0
# From MPC102956
297P/Beshore,e,10.2940,96.6445,134.5494,3.464648,0.1528324,0.32116729,111.8219,01/29.0/2023,2000,g 15.0,4.0
# From MPC114609
298P/Christensen,e,7.8707,52.8201,100.6247,3.590112,0.1448912,0.38624396,126.7995,01/29.0/2023,2000,g 15.0,4.0
# From MPEC 2022-V95
299P/Catalina-PANSTARRS,e,10.4676,271.6024,323.7626,4.388259,0.1072175,0.28092063,310.9163,01/29.0/2023,2000,g 11.5,4.0
# From MPEC 2022-ED3
300P/Catalina,e,5.6740,95.6244,222.9514,2.698693,0.2223177,0.69167439,343.9683,01/29.0/2023,2000,g 16.0,4.0
# From MPC 89014
301P/LINEAR-NEAT,e,10.3381,351.1706,193.5549,5.740856,0.0716538,0.58544065,220.9822,01/29.0/2023,2000,g 13.0,4.0
# From MPEC 2022-K19
302P/Lemmon-PANSTARRS,e,6.0335,121.7322,208.4808,4.272995,0.1115849,0.23024688,274.1313,01/29.0/2023,2000,g 12.5,4.0
# From MPC 92278
303P/NEAT,e,7.0201,347.9657,356.9849,5.043724,0.0870116,0.51089681,262.7845,01/29.0/2023,2000,g 13.5,4.0
# From MPEC 2022-K19
304P/Ory,e,2.6074,58.9080,335.2648,3.150700,0.1762356,0.60094205,158.4468,01/29.0/2023,2000,g 16.5,4.0
# From MPC101100
305P/Skiff,e,11.6676,240.1023,147.3695,4.640018,0.0986108,0.69397885,295.1053,01/29.0/2023,2000,g 18.0,4.0
# From MPC 92278
306P/LINEAR,e,8.3089,341.3734,0.8867,3.124130,0.1784886,0.59314169,196.6510,01/29.0/2023,2000,g 19.0,4.0
# From MPC 92278
307P/LINEAR,e,4.4353,158.1640,222.1648,5.789504,0.0707525,0.67554503,209.1608,01/29.0/2023,2000,g 15.0,4.0
# From MPEC 2022-C56
308P/Lagerkvist-Carsenty,e,4.8545,63.0408,333.6675,6.599785,0.0581312,0.36459847,163.9166,01/29.0/2023,2000,g 13.0,2.0
# From MPC 94284
309P/LINEAR,e,17.0238,10.1451,49.9431,4.373113,0.1077750,0.61819979,314.1854,01/29.0/2023,2000,g 15.0,4.0
# From MPEC 2022-QD9
310P/Hill,e,13.1279,8.9207,31.7244,4.183341,0.1151912,0.42247394,329.1221,01/29.0/2023,2000,g 13.5,4.0
# From MPEC 2021-BE3
311P/PANSTARRS,e,4.9701,279.2123,144.5018,2.188182,0.3044942,0.11590622,256.8895,01/29.0/2023,2000,g 17.0,4.0
# From MPEC 2021-BE3
312P/NEAT,e,19.7636,144.6711,207.6553,3.469601,0.1525053,0.42770225,130.5120,01/29.0/2023,2000,g 16.0,4.0
# From MPEC 2021-S45
313P/Gibbs,e,10.9789,105.9543,254.8579,3.164050,0.1751213,0.23496034,178.2493,01/29.0/2023,2000,g 15.0,4.0
# From MPC105243
314P/Montani,e,3.9861,267.6065,213.9239,7.257689,0.0504088,0.41679955,116.1574,01/29.0/2023,2000,g  9.5,4.0
# From MPEC 2021-N06
315P/LONEOS,e,17.7355,68.7690,65.7420,4.939992,0.0897666,0.52103221,202.5327,01/29.0/2023,2000,g 11.0,4.0
# From MPC 92279
316P/LONEOS-Christensen,e,9.8267,246.2463,191.7143,4.386058,0.1072982,0.15600453,290.3597,01/29.0/2023,2000,g 13.5,4.0
# From MPEC 2020-C98
317P/WISE,e,11.9537,275.4825,334.8327,2.962374,0.1933055,0.57058049,165.3045,01/29.0/2023,2000,g 17.5,4.0
# From MPC102103
318P/McNaught-Hartley,e,17.8888,35.5048,313.3332,7.504897,0.0479388,0.67505815,127.1211,01/29.0/2023,2000,g  8.5,6.0
# From MPC 97499
319P/Catalina-McNaught,e,15.0954,111.3615,203.6625,3.565175,0.1464141,0.66655454,44.4518,01/29.0/2023,2000,g 15.0,4.0
# From MPC 96281
320P/McNaught,e,4.9055,295.9470,0.7856,3.094319,0.1810741,0.68524365,134.3749,01/29.0/2023,2000,g 20.5,4.0
# From MPC105243
321P/SOHO,e,20.0848,165.0181,172.7470,2.423143,0.2612976,0.98108359,0.0000,10/26.5985/2023,2000,g 20.0,4.0
# From MPC102103
322P/SOHO,e,11.4657,351.5060,56.9054,2.507548,0.2482163,0.97997168,0.0000,08/21.0848/2023,2000,g 19.0,4.0
# From MPEC 2016-Y36
